start=new Date('2023-05-27T00:00:00.000Z').valueOf();
sats=[{"FILE":"3917850","MEAN_MOTION_DDOT":"0.0000000000000","REV_AT_EPOCH":"17632","SEMIMAJOR_AXIS":"6925.289","REF_FRAME":"TEME","MEAN_MOTION_DOT":"0.00015880","ARG_OF_PERICENTER":"107.7790","DECAY_DATE":null,"NORAD_CAT_ID":"45373","EPHEMERIS_TYPE":"0","RA_OF_ASC_NODE":"55.7834","COUNTRY_CODE":"US","MEAN_ANOMALY":"252.3307","PERIAPSIS":"546.468","MEAN_ELEMENT_THEORY":"SGP4","BSTAR":"0.00108200000000","OBJECT_NAME":"STARLINK-1295","GP_ID":"232582858","APOAPSIS":"547.839","ECCENTRICITY":"0.00009900","OBJECT_TYPE":"PAYLOAD","TLE_LINE2":"2 45373  53.0542  55.7834 0000990 107.7790 252.3307 15.06419473176325","INCLINATION":"53.0542","TIME_SYSTEM":"UTC","EPOCH":"2023-05-26T20:54:59.429088","CLASSIFICATION_TYPE":"U","RCS_SIZE":"LARGE","PERIOD":"95.591","MEAN_MOTION":"15.06419473","LAUNCH_DATE":"2020-03-18","ELEMENT_SET_NO":"999","CENTER_NAME":"EARTH","TLE_LINE1":"1 45373U 20019P   23146.87152117  .00015880  00000-0  10820-2 0  9997","SITE":"AFETR","OBJECT_ID":"2020-019P"},{"CLASSIFICATION_TYPE":"U","RCS_SIZE":"LARGE","PERIOD":"95.591","MEAN_MOTION":"15.06410264","LAUNCH_DATE":"2020-03-18","ELEMENT_SET_NO":"999","CENTER_NAME":"EARTH","TLE_LINE1":"1 45374U 20019Q   23146.86783524  .00008454  00000-0  58560-3 0  9992","SITE":"AFETR","OBJECT_ID":"2020-019Q","GP_ID":"232582608","OBJECT_NAME":"STARLINK-1300","APOAPSIS":"548.136","ECCENTRICITY":"0.00013770","OBJECT_TYPE":"PAYLOAD","TLE_LINE2":"2 45374  53.0537  55.7970 0001377  98.4134 261.7011 15.06410264176324","INCLINATION":"53.0537","TIME_SYSTEM":"UTC","EPOCH":"2023-05-26T20:49:40.964736","DECAY_DATE":null,"NORAD_CAT_ID":"45374","EPHEMERIS_TYPE":"0","COUNTRY_CODE":"US","RA_OF_ASC_NODE":"55.7970","MEAN_ANOMALY":"261.7011","PERIAPSIS":"546.228","MEAN_ELEMENT_THEORY":"SGP4","BSTAR":"0.00058560000000","FILE":"3917850","MEAN_MOTION_DDOT":"0.0000000000000","REV_AT_EPOCH":"17632","SEMIMAJOR_AXIS":"6925.317","REF_FRAME":"TEME","MEAN_MOTION_DOT":"0.00008454","ARG_OF_PERICENTER":"98.4134"},{"REV_AT_EPOCH":"17619","REF_FRAME":"TEME","SEMIMAJOR_AXIS":"6925.338","ARG_OF_PERICENTER":"91.1149","MEAN_MOTION_DOT":"0.00005802","FILE":"3917630","MEAN_MOTION_DDOT":"0.0000000000000","PERIAPSIS":"546.244","BSTAR":"0.00040802000000","MEAN_ELEMENT_THEORY":"SGP4","COUNTRY_CODE":"US","RA_OF_ASC_NODE":"59.6059","NORAD_CAT_ID":"45375","DECAY_DATE":null,"EPHEMERIS_TYPE":"0","MEAN_ANOMALY":"268.9998","INCLINATION":"53.0539","TIME_SYSTEM":"UTC","EPOCH":"2023-05-26T00:28:54.619104","OBJECT_NAME":"STARLINK-1302","GP_ID":"232551209","APOAPSIS":"548.162","ECCENTRICITY":"0.00013850","OBJECT_TYPE":"PAYLOAD","TLE_LINE2":"2 45375  53.0539  59.6059 0001385  91.1149 268.9998 15.06403543176193","LAUNCH_DATE":"2020-03-18","ELEMENT_SET_NO":"999","CENTER_NAME":"EARTH","TLE_LINE1":"1 45375U 20019R   23146.02007661  .00005802  00000-0  40802-3 0  9996","OBJECT_ID":"2020-019R","SITE":"AFETR","RCS_SIZE":"LARGE","CLASSIFICATION_TYPE":"U","PERIOD":"95.592","MEAN_MOTION":"15.06403543"},{"PERIAPSIS":"546.206","MEAN_ELEMENT_THEORY":"SGP4","BSTAR":"0.00072575000000","NORAD_CAT_ID":"45376","DECAY_DATE":null,"EPHEMERIS_TYPE":"0","RA_OF_ASC_NODE":"55.6461","COUNTRY_CODE":"US","MEAN_ANOMALY":"234.8518","SEMIMAJOR_AXIS":"6925.296","REF_FRAME":"TEME","REV_AT_EPOCH":"17632","MEAN_MOTION_DOT":"0.00010550","ARG_OF_PERICENTER":"125.2600","FILE":"3917850","MEAN_MOTION_DDOT":"0.0000000000000","CENTER_NAME":"EARTH","ELEMENT_SET_NO":"999","LAUNCH_DATE":"2020-03-18","SITE":"AFETR","OBJECT_ID":"2020-019S","TLE_LINE1":"1 45376U 20019S   23146.90101277  .00010550  00000-0  72575-3 0  9990","PERIOD":"95.591","CLASSIFICATION_TYPE":"U","RCS_SIZE":"LARGE","MEAN_MOTION":"15.06417293","INCLINATION":"53.0551","EPOCH":"2023-05-26T21:37:27.503328","TIME_SYSTEM":"UTC","ECCENTRICITY":"0.00013790","OBJECT_NAME":"STARLINK-1304","GP_ID":"232583610","APOAPSIS":"548.116","TLE_LINE2":"2 45376  53.0551  55.6461 0001379 125.2600 234.8518 15.06417293176327","OBJECT_TYPE":"PAYLOAD"},{"ELEMENT_SET_NO":"999","LAUNCH_DATE":"2020-03-18","CENTER_NAME":"EARTH","TLE_LINE1":"1 45377U 20019T   23146.92681376  .00011369  00000-0  78054-3 0  9993","SITE":"AFETR","OBJECT_ID":"2020-019T","CLASSIFICATION_TYPE":"U","RCS_SIZE":"LARGE","PERIOD":"95.591","MEAN_MOTION":"15.06417362","INCLINATION":"53.0541","TIME_SYSTEM":"UTC","EPOCH":"2023-05-26T22:14:36.708864","APOAPSIS":"548.113","GP_ID":"232582358","OBJECT_NAME":"STARLINK-1305","ECCENTRICITY":"0.00013750","OBJECT_TYPE":"PAYLOAD","TLE_LINE2":"2 45377  53.0541  55.5310 0001375 105.5436 254.5705 15.06417362176338","PERIAPSIS":"546.208","MEAN_ELEMENT_THEORY":"SGP4","BSTAR":"0.00078054000000","NORAD_CAT_ID":"45377","DECAY_DATE":null,"EPHEMERIS_TYPE":"0","COUNTRY_CODE":"US","RA_OF_ASC_NODE":"55.5310","MEAN_ANOMALY":"254.5705","REV_AT_EPOCH":"17633","SEMIMAJOR_AXIS":"6925.295","REF_FRAME":"TEME","MEAN_MOTION_DOT":"0.00011369","ARG_OF_PERICENTER":"105.5436","FILE":"3917850","MEAN_MOTION_DDOT":"0.0000000000000"},{"COUNTRY_CODE":"US","RA_OF_ASC_NODE":"55.5788","DECAY_DATE":null,"NORAD_CAT_ID":"45378","EPHEMERIS_TYPE":"0","MEAN_ANOMALY":"251.7150","PERIAPSIS":"546.446","BSTAR":"0.00053315000000","MEAN_ELEMENT_THEORY":"SGP4","FILE":"3917850","MEAN_MOTION_DDOT":"0.0000000000000","REV_AT_EPOCH":"17633","REF_FRAME":"TEME","SEMIMAJOR_AXIS":"6925.315","ARG_OF_PERICENTER":"108.3954","MEAN_MOTION_DOT":"0.00007671","RCS_SIZE":"LARGE","CLASSIFICATION_TYPE":"U","PERIOD":"95.591","MEAN_MOTION":"15.06411090","LAUNCH_DATE":"2020-03-18","ELEMENT_SET_NO":"999","CENTER_NAME":"EARTH","TLE_LINE1":"1 45378U 20019U   23146.91574965  .00007671  00000-0  53315-3 0  9992","OBJECT_ID":"2020-019U","SITE":"AFETR","GP_ID":"232583109","APOAPSIS":"547.913","OBJECT_NAME":"STARLINK-1310","ECCENTRICITY":"0.00010590","OBJECT_TYPE":"PAYLOAD","TLE_LINE2":"2 45378  53.0547  55.5788 0001059 108.3954 251.7150 15.06411090176334","INCLINATION":"53.0547","TIME_SYSTEM":"UTC","EPOCH":"2023-05-26T21:58:40.769760"},{"MEAN_MOTION":"15.06408744","PERIOD":"95.592","CLASSIFICATION_TYPE":"U","RCS_SIZE":"LARGE","SITE":"AFETR","OBJECT_ID":"2020-019V","TLE_LINE1":"1 45379U 20019V   23146.91944284  .00006161  00000-0  43204-3 0  9997","CENTER_NAME":"EARTH","LAUNCH_DATE":"2020-03-18","ELEMENT_SET_NO":"999","TLE_LINE2":"2 45379  53.0541  55.5637 0001079 109.9993 250.1112 15.06408744176337","OBJECT_TYPE":"PAYLOAD","ECCENTRICITY":"0.00010790","GP_ID":"232583360","APOAPSIS":"547.934","OBJECT_NAME":"STARLINK-1319","EPOCH":"2023-05-26T22:03:59.861376","TIME_SYSTEM":"UTC","INCLINATION":"53.0541","MEAN_ANOMALY":"250.1112","DECAY_DATE":null,"EPHEMERIS_TYPE":"0","NORAD_CAT_ID":"45379","RA_OF_ASC_NODE":"55.5637","COUNTRY_CODE":"US","MEAN_ELEMENT_THEORY":"SGP4","BSTAR":"0.00043204000000","PERIAPSIS":"546.440","MEAN_MOTION_DDOT":"0.0000000000000","FILE":"3917850","MEAN_MOTION_DOT":"0.00006161","ARG_OF_PERICENTER":"109.9993","SEMIMAJOR_AXIS":"6925.322","REF_FRAME":"TEME","REV_AT_EPOCH":"17633"},{"MEAN_MOTION_DOT":"0.00015934","ARG_OF_PERICENTER":"117.7498","SEMIMAJOR_AXIS":"6925.249","REF_FRAME":"TEME","REV_AT_EPOCH":"17660","MEAN_MOTION_DDOT":"0.0000000000000","FILE":"3917850","MEAN_ELEMENT_THEORY":"SGP4","BSTAR":"0.00108520000000","PERIAPSIS":"546.501","MEAN_ANOMALY":"242.3580","DECAY_DATE":null,"NORAD_CAT_ID":"45380","EPHEMERIS_TYPE":"0","RA_OF_ASC_NODE":"35.5736","COUNTRY_CODE":"US","EPOCH":"2023-05-26T22:01:20.065440","TIME_SYSTEM":"UTC","INCLINATION":"53.0558","TLE_LINE2":"2 45380  53.0558  35.5736 0000885 117.7498 242.3580 15.06432623176601","OBJECT_TYPE":"PAYLOAD","ECCENTRICITY":"0.00008850","GP_ID":"232584111","OBJECT_NAME":"STARLINK-1207","APOAPSIS":"547.726","SITE":"AFETR","OBJECT_ID":"2020-019W","TLE_LINE1":"1 45380U 20019W   23146.91759335  .00015934  00000-0  10852-2 0  9990","CENTER_NAME":"EARTH","ELEMENT_SET_NO":"999","LAUNCH_DATE":"2020-03-18","MEAN_MOTION":"15.06432623","PERIOD":"95.590","CLASSIFICATION_TYPE":"U","RCS_SIZE":"LARGE"},{"PERIAPSIS":"546.346","BSTAR":"0.00054165000000","MEAN_ELEMENT_THEORY":"SGP4","RA_OF_ASC_NODE":"35.8195","COUNTRY_CODE":"US","NORAD_CAT_ID":"45381","DECAY_DATE":null,"EPHEMERIS_TYPE":"0","MEAN_ANOMALY":"247.0032","REF_FRAME":"TEME","SEMIMAJOR_AXIS":"6925.300","REV_AT_EPOCH":"17659","ARG_OF_PERICENTER":"113.1082","MEAN_MOTION_DOT":"0.00007799","FILE":"3917850","MEAN_MOTION_DDOT":"0.0000000000000","CENTER_NAME":"EARTH","LAUNCH_DATE":"2020-03-18","ELEMENT_SET_NO":"999","OBJECT_ID":"2020-019X","SITE":"AFETR","TLE_LINE1":"1 45381U 20019X   23146.86230550  .00007799  00000-0  54165-3 0  9994","PERIOD":"95.591","RCS_SIZE":"LARGE","CLASSIFICATION_TYPE":"U","MEAN_MOTION":"15.06415953","INCLINATION":"53.0550","EPOCH":"2023-05-26T20:41:43.195200","TIME_SYSTEM":"UTC","ECCENTRICITY":"0.00011820","GP_ID":"232582859","OBJECT_NAME":"STARLINK-1258","APOAPSIS":"547.983","TLE_LINE2":"2 45381  53.0550  35.8195 0001182 113.1082 247.0032 15.06415953176595","OBJECT_TYPE":"PAYLOAD"},{"INCLINATION":"53.0416","TIME_SYSTEM":"UTC","EPOCH":"2023-05-26T21:37:09.301440","OBJECT_NAME":"STARLINK-1264","GP_ID":"232582609","APOAPSIS":"502.514","ECCENTRICITY":"0.00031050","OBJECT_TYPE":"PAYLOAD","TLE_LINE2":"2 45382  53.0416  23.6287 0003105  83.1990 276.9359 15.21811671176592","LAUNCH_DATE":"2020-03-18","ELEMENT_SET_NO":"999","CENTER_NAME":"EARTH","TLE_LINE1":"1 45382U 20019Y   23146.90080210  .00024917  00000-0  10940-2 0  9999","SITE":"AFETR","OBJECT_ID":"2020-019Y","CLASSIFICATION_TYPE":"U","RCS_SIZE":"LARGE","PERIOD":"94.624","MEAN_MOTION":"15.21811671","REV_AT_EPOCH":"17659","SEMIMAJOR_AXIS":"6878.513","REF_FRAME":"TEME","MEAN_MOTION_DOT":"0.00024917","ARG_OF_PERICENTER":"83.1990","FILE":"3917850","MEAN_MOTION_DDOT":"0.0000000000000","PERIAPSIS":"498.242","MEAN_ELEMENT_THEORY":"SGP4","BSTAR":"0.00109400000000","DECAY_DATE":null,"NORAD_CAT_ID":"45382","EPHEMERIS_TYPE":"0","COUNTRY_CODE":"US","RA_OF_ASC_NODE":"23.6287","MEAN_ANOMALY":"276.9359"}];
